0 FENGYUN 1C DEB
1 30829U 99025AVP 13283.28557991  .00000224  00000-0  16856-3 0  7669
2 30829 099.0793 307.6434 0038009 184.9499 234.8566 14.04110826339918
0 FENGYUN 1C DEB
1 30829U 99025AVP 13285.86361230  .00000150  00000-0  12213-3 0  7676
2 30829 099.0784 310.2197 0038133 177.8472 306.2408 14.04112446340274
0 FENGYUN 1C DEB
1 30829U 99025AVP 13289.57529060  .00000184  00000-0  14365-3 0  7683
2 30829 099.0773 313.9282 0038315 167.7252 347.8808 14.04115296340791
0 FENGYUN 1C DEB
1 30829U 99025AVP 13292.56711896  .00000278  00000-0  20254-3 0  7695
2 30829 099.0767 316.9168 0038435 159.7039 350.7436 14.04115928341217
0 FENGYUN 1C DEB
1 30829U 99025AVP 13295.32957416  .00000450  00000-0  31041-3 0  7702
2 30829 099.0767 319.6762 0038509 152.3280 274.1711 14.04116833341600
